{"type": "FeatureCollection", "features": [ {"type": "Feature", "properties": {"norad_id": 31535, "name": "FENGYUN 1C DEB", "group": "fengyun-1c-debris", "lat": 62.08534888331305, "lon": 44.49217291636432, "alt_km": 728.126292546237, "timestamp": "2025-12-26T03:50:12.376148+00:00", "meta": {"OBJECT_NAME": "FENGYUN 1C DEB", "OBJECT_ID": "1999-025BYA", "EPOCH": "2025-12-24T07:35:01.239648", "MEAN_MOTION": 14.28365106, "ECCENTRICITY": 0.00883022, "INCLINATION": 98.0343, "RA_OF_ASC_NODE": 207.3324, "ARG_OF_PERICENTER": 128.5209, "MEAN_ANOMALY": 232.3933, "EPHEMERIS_TYPE": 0, "CLASSIFICATION_TYPE": "U", "NORAD_CAT_ID": 31535, "ELEMENT_SET_NO": 999, "REV_AT_EPOCH": 72096, "BSTAR": 0.00063622551, "MEAN_MOTION_DOT": 1.62e-05, "MEAN_MOTION_DDOT": 0}, "tle": {"line1": "1 31535U 99025BYA 25358.31598657  .00001620  00000+0  63623-3 0  9990", "line2": "2 31535  98.0343 207.3324 0088302 128.5209 232.3933 14.28365106720960"}}, "geometry": {"type": "Point", "coordinates": [44.49217291636432, 62.08534888331305]}}, {"type": "Feature", "properties": {"norad_id": 31536, "name": "FENGYUN 1C DEB", "group": "fengyun-1c-debris", "lat": 35.97740142533946, "lon": 93.38492593586531, "alt_km": 546.387195727375, "timestamp": "2025-12-26T03:50:12.376158+00:00", "meta": {"OBJECT_NAME": "FENGYUN 1C DEB", "OBJECT_ID": "1999-025BYB", "EPOCH": "2025-12-25T17:17:52.152864", "MEAN_MOTION": 14.54479614, "ECCENTRICITY": 0.0294631, "INCLINATION": 98.236, "RA_OF_ASC_NODE": 266.9164, "ARG_OF_PERICENTER": 104.6943, "MEAN_ANOMALY": 258.7104, "EPHEMERIS_TYPE": 0, "CLASSIFICATION_TYPE": "U", "NORAD_CAT_ID": 31536, "ELEMENT_SET_NO": 999, "REV_AT_EPOCH": 96446, "BSTAR": 0.00092536, "MEAN_MOTION_DOT": 7.024e-05, "MEAN_MOTION_DDOT": 0}, "tle": {"line1": "1 31536U 99025BYB 25359.72074251  .00007024  00000+0  92536-3 0  9995", "line2": "2 31536  98.2360 266.9164 0294631 104.6943 258.7104 14.54479614964465"}}, "geometry": {"type": "Point", "coordinates": [93.38492593586531, 35.97740142533946]}}, {"type": "Feature", "properties": {"norad_id": 31537, "name": "FENGYUN 1C DEB", "group": "fengyun-1c-debris", "lat": -43.707966404743374, "lon": 163.0309892479895, "alt_km": 609.3278817119735, "timestamp": "2025-12-26T03:50:12.376168+00:00", "meta": {"OBJECT_NAME": "FENGYUN 1C DEB", "OBJECT_ID": "1999-025BYC", "EPOCH": "2025-12-22T15:30:50.364864", "MEAN_MOTION": 14.20468164, "ECCENTRICITY": 0.03487105, "INCLINATION": 99.2934, "RA_OF_ASC_NODE": 150.3269, "ARG_OF_PERICENTER": 296.2481, "MEAN_ANOMALY": 60.3246, "EPHEMERIS_TYPE": 0, "CLASSIFICATION_TYPE": "U", "NORAD_CAT_ID": 31537, "ELEMENT_SET_NO": 999, "REV_AT_EPOCH": 93422, "BSTAR": 0.0026080635, "MEAN_MOTION_DOT": 0.00010318, "MEAN_MOTION_DDOT": 0}, "tle": {"line1": "1 31537U 99025BYC 25356.64641626  .00010318  00000+0  26081-2 0  9991", "line2": "2 31537  99.2934 150.3269 0348710 296.2481  60.3246 14.20468164934225"}}, "geometry": {"type": "Point", "coordinates": [163.0309892479895, -43.707966404743374]}}, {"type": "Feature", "properties": {"norad_id": 31540, "name": "FENGYUN 1C DEB", "group": "fengyun-1c-debris", "lat": -43.32589669537705, "lon": 169.61242522452247, "alt_km": 611.3929906445592, "timestamp": "2025-12-26T03:50:12.376178+00:00", "meta": {"OBJECT_NAME": "FENGYUN 1C DEB", "OBJECT_ID": "1999-025BYF", "EPOCH": "2025-12-23T05:34:33.525408", "MEAN_MOTION": 14.6550063, "ECCENTRICITY": 0.01764738, "INCLINATION": 99.0576, "RA_OF_ASC_NODE": 157.7332, "ARG_OF_PERICENTER": 268.7753, "MEAN_ANOMALY": 89.3225, "EPHEMERIS_TYPE": 0, "CLASSIFICATION_TYPE": "U", "NORAD_CAT_ID": 31540, "ELEMENT_SET_NO": 999, "REV_AT_EPOCH": 98455, "BSTAR": 0.0010217432, "MEAN_MOTION_DOT": 6.907e-05, "MEAN_MOTION_DDOT": 0}, "tle": {"line1": "1 31540U 99025BYF 25357.23233247  .00006907  00000+0  10217-2 0  9990", "line2": "2 31540  99.0576 157.7332 0176473 268.7753  89.3225 14.65500630984555"}}, "geometry": {"type": "Point", "coordinates": [169.61242522452247, -43.32589669537705]}}, {"type": "Feature", "properties": {"norad_id": 31541, "name": "FENGYUN 1C DEB", "group": "fengyun-1c-debris", "lat": 43.75176383068169, "lon": 135.17357801690514, "alt_km": 710.0507065688025, "timestamp": "2025-12-26T03:50:12.376188+00:00", "meta": {"OBJECT_NAME": "FENGYUN 1C DEB", "OBJECT_ID": "1999-025BYG", "EPOCH": "2025-12-25T03:06:41.952672", "MEAN_MOTION": 14.6902553, "ECCENTRICITY": 0.0078402, "INCLINATION": 98.9804, "RA_OF_ASC_NODE": 142.7501, "ARG_OF_PERICENTER": 201.9008, "MEAN_ANOMALY": 157.8837, "EPHEMERIS_TYPE": 0, "CLASSIFICATION_TYPE": "U", "NORAD_CAT_ID": 31541, "ELEMENT_SET_NO": 999, "REV_AT_EPOCH": 98605, "BSTAR": 0.0015835, "MEAN_MOTION_DOT": 9.683e-05, "MEAN_MOTION_DDOT": 0}, "tle": {"line1": "1 31541U 99025BYG 25359.12965223  .00009683  00000+0  15835-2 0  9992", "line2": "2 31541  98.9804 142.7501 0078402 201.9008 157.8837 14.69025530986057"}}, "geometry": {"type": "Point", "coordinates": [135.17357801690514, 43.75176383068169]}}, {"type": "Feature", "properties": {"norad_id": 31542, "name": "FENGYUN 1C DEB", "group": "fengyun-1c-debris", "lat": -34.27766948154497, "lon": -131.96434406889145, "alt_km": 797.7075096914496, "timestamp": "2025-12-26T03:50:12.376198+00:00", "meta": {"OBJECT_NAME": "FENGYUN 1C DEB", "OBJECT_ID": "1999-025BYH", "EPOCH": "2025-12-23T09:00:46.396800", "MEAN_MOTION": 14.22851184, "ECCENTRICITY": 0.00478944, "INCLINATION": 98.7301, "RA_OF_ASC_NODE": 51.288, "ARG_OF_PERICENTER": 176.9296, "MEAN_ANOMALY": 183.2185, "EPHEMERIS_TYPE": 0, "CLASSIFICATION_TYPE": "U", "NORAD_CAT_ID": 31542, "ELEMENT_SET_NO": 999, "REV_AT_EPOCH": 96091, "BSTAR": 0.0012852727, "MEAN_MOTION_DOT": 2.877e-05, "MEAN_MOTION_DDOT": 0}, "tle": {"line1": "1 31542U 99025BYH 25357.37553700  .00002877  00000+0  12853-2 0  9996", "line2": "2 31542  98.7301  51.2880 0047894 176.9296 183.2185 14.22851184960910"}}, "geometry": {"type": "Point", "coordinates": [-131.96434406889145, -34.27766948154497]}}, {"type": "Feature", "properties": {"norad_id": 31544, "name": "FENGYUN 1C DEB", "group": "fengyun-1c-debris", "lat": -73.39837442059542, "lon": -160.15037726781145, "alt_km": 830.7088877426258, "timestamp": "2025-12-26T03:50:12.376208+00:00", "meta": {"OBJECT_NAME": "FENGYUN 1C DEB", "OBJECT_ID": "1999-025BYK", "EPOCH": "2025-12-22T10:20:35.081376", "MEAN_MOTION": 14.14359975, "ECCENTRICITY": 0.00322241, "INCLINATION": 98.8282, "RA_OF_ASC_NODE": 47.5818, "ARG_OF_PERICENTER": 240.9868, "MEAN_ANOMALY": 118.8075, "EPHEMERIS_TYPE": 0, "CLASSIFICATION_TYPE": "U", "NORAD_CAT_ID": 31544, "ELEMENT_SET_NO": 999, "REV_AT_EPOCH": 95894, "BSTAR": 0.0006556952, "MEAN_MOTION_DOT": 1.216e-05, "MEAN_MOTION_DDOT": 0}, "tle": {"line1": "1 31544U 99025BYK 25356.43096159  .00001216  00000+0  65570-3 0  9995", "line2": "2 31544  98.8282  47.5818 0032224 240.9868 118.8075 14.14359975958942"}}, "geometry": {"type": "Point", "coordinates": [-160.15037726781145, -73.39837442059542]}}, {"type": "Feature", "properties": {"norad_id": 31546, "name": "FENGYUN 1C DEB", "group": "fengyun-1c-debris", "lat": 1.1459077782609357, "lon": 68.45526984064813, "alt_km": 862.7867849979039, "timestamp": "2025-12-26T03:50:12.376219+00:00", "meta": {"OBJECT_NAME": "FENGYUN 1C DEB", "OBJECT_ID": "1999-025BYM", "EPOCH": "2025-12-25T15:56:12.109056", "MEAN_MOTION": 14.13210899, "ECCENTRICITY": 0.0145563, "INCLINATION": 98.2426, "RA_OF_ASC_NODE": 68.1644, "ARG_OF_PERICENTER": 99.8764, "MEAN_ANOMALY": 261.8877, "EPHEMERIS_TYPE": 0, "CLASSIFICATION_TYPE": "U", "NORAD_CAT_ID": 31546, "ELEMENT_SET_NO": 999, "REV_AT_EPOCH": 94971, "BSTAR": 0.0014554, "MEAN_MOTION_DOT": 2.977e-05, "MEAN_MOTION_DDOT": 0}, "tle": {"line1": "1 31546U 99025BYM 25359.66402904  .00002977  00000+0  14554-2 0  9994", "line2": "2 31546  98.2426  68.1644 0145563  99.8764 261.8877 14.13210899949715"}}, "geometry": {"type": "Point", "coordinates": [68.45526984064813, 1.1459077782609357]}}, {"type": "Feature", "properties": {"norad_id": 31547, "name": "FENGYUN 1C DEB", "group": "fengyun-1c-debris", "lat": -74.29033141984192, "lon": -170.31964259375405, "alt_km": 792.7225475660662, "timestamp": "2025-12-26T03:50:12.376229+00:00", "meta": {"OBJECT_NAME": "FENGYUN 1C DEB", "OBJECT_ID": "1999-025BYN", "EPOCH": "2025-12-23T20:38:21.518592", "MEAN_MOTION": 14.23194387, "ECCENTRICITY": 0.0054564, "INCLINATION": 99.0859, "RA_OF_ASC_NODE": 41.9836, "ARG_OF_PERICENTER": 221.2814, "MEAN_ANOMALY": 138.4231, "EPHEMERIS_TYPE": 0, "CLASSIFICATION_TYPE": "U", "NORAD_CAT_ID": 31547, "ELEMENT_SET_NO": 999, "REV_AT_EPOCH": 64175, "BSTAR": 0.0013187, "MEAN_MOTION_DOT": 2.981e-05, "MEAN_MOTION_DDOT": 0}, "tle": {"line1": "1 31547U 99025BYN 25357.85997128  .00002981  00000+0  13187-2 0  9997", "line2": "2 31547  99.0859  41.9836 0054564 221.2814 138.4231 14.23194387641754"}}, "geometry": {"type": "Point", "coordinates": [-170.31964259375405, -74.29033141984192]}}, {"type": "Feature", "properties": {"norad_id": 31550, "name": "FENGYUN 1C DEB", "group": "fengyun-1c-debris", "lat": 5.426693000228376, "lon": -179.96426097873913, "alt_km": 685.5853446589545, "timestamp": "2025-12-26T03:50:12.376260+00:00", "meta": {"OBJECT_NAME": "FENGYUN 1C DEB", "OBJECT_ID": "1999-025BYR", "EPOCH": "2025-12-25T18:40:35.077728", "MEAN_MOTION": 14.40274889, "ECCENTRICITY": 0.0190106, "INCLINATION": 98.3121, "RA_OF_ASC_NODE": 358.8691, "ARG_OF_PERICENTER": 233.3004, "MEAN_ANOMALY": 125.0588, "EPHEMERIS_TYPE": 0, "CLASSIFICATION_TYPE": "U", "NORAD_CAT_ID": 31550, "ELEMENT_SET_NO": 999, "REV_AT_EPOCH": 65642, "BSTAR": 0.00062694, "MEAN_MOTION_DOT": 2.408e-05, "MEAN_MOTION_DDOT": 0}, "tle": {"line1": "1 31550U 99025BYR 25359.77818377  .00002408  00000+0  62694-3 0  9994", "line2": "2 31550  98.3121 358.8691 0190106 233.3004 125.0588 14.40274889656421"}}, "geometry": {"type": "Point", "coordinates": [-179.96426097873913, 5.426693000228376]}}]}